GOES 1 (SMS-C) [-]      
1 08366U 75100A   22202.28416910 -.00000222  00000+0  00000+0 0  9990
2 08366   8.1970 295.3094 0002231 222.8586 161.9719  1.00281800170904
GOES 2 [-]              
1 10061U 77048A   22202.14829642 -.00000257  00000+0  00000+0 0  9991
2 10061   9.7755 306.7365 0010593  31.1179 331.6950  0.99399442109335
GOES 3 [-]              
1 10953U 78062A   22201.60488378 -.00000159  00000+0  00000+0 0  9996
2 10953  10.1048 311.2482 0003755 150.5643 229.4971  0.99365389114359
GOES 4 [-]              
1 11964U 80074A   22201.54617227  .00000075  00000+0  00000+0 0  9991
2 11964  11.0651 315.0696 0033071  77.2593 330.5006  0.99228659113275
GOES 5 [-]              
1 12472U 81049A   22201.28025465 -.00000261  00000+0  00000+0 0  9995
2 12472  11.9019 326.4313 0002500 151.5343 202.4305  1.00319868108528
GOES 6 [-]              
1 14050U 83041A   22201.35175897 -.00000259  00000+0  00000+0 0  9993
2 14050  12.4590 331.7322 0005441 141.4101 232.4295  1.00299953201705
GOES 7 [-]              
1 17561U 87022A   22201.63837642  .00000070  00000+0  00000+0 0  9990
2 17561  14.2137 348.2770 0006317  75.1776 306.4049  0.99902377112704
GOES 8 [-]              
1 23051U 94022A   22201.63400948 -.00000092  00000+0  00000+0 0  9999
2 23051  13.2038  23.9565 0007564  48.6959 292.8561  0.98906400110004
GOES 9 [-]              
1 23581U 95025A   22201.45773047 -.00000051  00000+0  00000+0 0  9999
2 23581  12.6965  24.2873 0009138  95.7251  75.9122  0.98798110 98653
GOES 10 [-]             
1 24786U 97019A   22201.83043075 -.00000274  00000+0  00000+0 0  9992
2 24786  11.4562  30.4596 0025655 197.5281 172.0720  0.99127895 91921
GOES 11 [-]             
1 26352U 00022A   22201.30004914 -.00000073  00000+0  00000+0 0  9999
2 26352   8.7507  59.0655 0002182  66.0490 302.1894  0.99043734 38338
GOES 12 [-]             
1 26871U 01031A   22201.50003437 -.00000220  00000+0  00000+0 0  9991
2 26871   9.5745  47.9692 0006432 345.2000  29.9972  0.99137789 76613
EWS-G1 (GOES 13) [+]    
1 29155U 06018A   22202.38431272  .00000037  00000+0  00000+0 0  9993
2 29155   0.6830  96.8098 0004563  90.3877 311.4369  1.00273900 59208
GOES 14 [B]             
1 35491U 09033A   22202.52757674 -.00000094  00000+0  00000+0 0  9990
2 35491   0.3975  95.0837 0013752 115.9940 173.4884  1.00272959 47851
GOES 15 [B]             
1 36411U 10008A   22202.53868803  .00000052  00000+0  00000+0 0  9998
2 36411   0.3699 100.6874 0002350  38.7837 225.4303  1.00277597 45361
GOES 16 [+]             
1 41866U 16071A   22202.50067282 -.00000250  00000+0  00000+0 0  9994
2 41866   0.0548 237.5532 0000589 296.5306 230.1857  1.00271774 20809
GOES 17 [+]             
1 43226U 18022A   22202.27300745  .00000095  00000+0  00000+0 0  9998
2 43226   0.0831 254.8568 0000284 276.9182  88.2157  1.00273007 16129
GOES 18 [+]             
1 51850U 22021A   22201.77078572  .00000093  00000+0  00000+0 0  9996
2 51850   0.0451 105.2921 0002680 106.2891 227.4426  1.00271626  1467
